NOAA 2 (ITOS-D)
1 06235U 72082A   24361.87357492 -.00000006  00000-0  25314-3 0  9991
2 06235 102.0225   3.1138 0004188 114.0682 309.8292 12.53192942387648
SOLRAD-7B
1  1291U 65016D   24362.02626335  .00000124  00000-0  13101-3 0  9991
2  1291  70.0797 298.1964 0018217 109.1776 251.1304 13.94868145 42285
OSCAR-7 (AO-7)
1 07530U 74089B   24361.85928163 -.00000018  00000-0  18009-3 0  9992
2 07530 101.9901 358.3937 0012403  76.7533 332.2601 12.53684223293183
UOSAT-2 (UO-11)
1 14781U 84021B   24361.88436703  .00003461  00000-0  37963-3 0  9996
2 14781  97.7316 325.8616 0008450 149.9210 210.2493 14.88332422177137
FLTSATCOM-7 (USA-20)
1 17181U 86096A   24361.74197009 -.00000207  00000-0  00000+0 0  9999
2 17181  13.1400 343.5024 0041999 314.8141  55.2155  0.98930739146602
FLTSATCOM-8 (USA-46)
1 20253U 89077A   24361.84027299 -.00000348  00000-0  00000-0 0  9996
2 20253  12.5749 354.3858 0007037 290.4543 239.1340  1.00278772255178
OSCAR 16 (PACSAT)
1 20439U 90005D   24361.79040147  .00000534  00000-0  20936-3 0  9995
2 20439  98.8982  12.3391 0010861  13.3865 160.1329 14.33631553824926
LUSAT (LO-19)
1 20442U 90005G   24361.70618388  .00000603  00000-0  23354-3 0  9992
2 20442  98.8950 357.2055 0011414 347.0334  13.0554 14.33806309825364
UFO 2 (USA 95)
1 22787U 93056A   24361.17784935  .00000143  00000-0  00000+0 0  9996
2 22787  11.7142   6.3940 0003815 266.2097 275.2467  1.00273391113267
EYESAT-1 (AO-27)
1 22825U 93061C   24361.73513655  .00000407  00000-0  17309-3 0  9993
2 22825  98.7633  56.2759 0007600 231.2079 128.8425 14.30689957630144
ITAMSAT (IO-26) 
1 22826U 93061D   24362.15049969  .00000430  00000-0  18012-3 0  9991
2 22826  98.7581  56.5663 0008353 213.4954 146.5701 14.31091971630748
UFO 3 (USA 104)
1 23132U 94035A   24362.11383753  .00000029  00000-0  00000+0 0  9990
2 23132  12.1290   8.8374 0005462 249.6789 303.0239  1.00152958126303
RADIO ROSTO (RS-15)
1 23439U 94085A   24361.83644839 -.00000060  00000-0 -49075-3 0  9994
2 23439  64.8169  92.2229 0145971 106.6686 255.0318 11.27580155235316
UFO 4 (USA 108)
1 23467U 95003A   24361.68047608 -.00000003  00000-0  00000-0 0  9998
2 23467   9.6899  14.8995 0004119 235.6806 262.2782  1.00271994109569
UFO 7 (USA 127)
1 23967U 96042A   24360.94761885 -.00000279  00000-0  00000-0 0  9990
2 23967  10.6019  19.7923 0004636 121.6349 243.3509  1.00341480104093
JAS-2 (FO-29)
1 24278U 96046B   24361.72782953  .00000033  00000-0  67926-4 0  9997
2 24278  98.5887 271.1859 0350689  49.6906 313.4325 13.53227376400473
UFO 8 (USA 138)
1 25258U 98016A   24361.74918118  .00000150  00000-0  00000-0 0  9997
2 25258  10.4788  25.7714 0009822 236.8847 129.7093  1.00356271 98471
TECHSAT-1B (GO-32)
1 25397U 98043D   24362.16488034  .00000324  00000-0  16069-3 0  9995
2 25397  98.9496 332.0524 0001122  12.5506 347.5700 14.24219593375109
ISS (ZARYA)
1 25544U 98067A   24361.72100155  .00025292  00000-0  44526-3 0  9991
2 25544  51.6378  81.4466 0005783   8.5494 351.5592 15.50270151488416
UFO 10 (USA 146)
1 25967U 99063A   24359.88144537 -.00000170  00000-0  00000+0 0  9997
2 25967   9.6003  29.8317 0007234 235.4213 123.1558  1.00275429 91932
PCSAT (NO-44)
1 26931U 01043C   24361.84619726  .00000543  00000-0  23500-3 0  9993
2 26931  67.0491 193.7088 0006509 260.3264  99.7103 14.31552956213522
PROBA-1
1 26958U 01049B   24362.08767760  .00004990  00000-0  35531-3 0  9994
2 26958  97.9357 342.8613 0060578 133.8624 226.7629 15.03605208262859
SAUDISAT-1C (SO-50)
1 27607U 02058C   24361.94565323  .00004307  00000-0  57165-3 0  9991
2 27607  64.5555 348.3534 0036520  18.3906 341.8509 14.80588666184844
CUTE-1 (CO-55)
1 27844U 03031E   24361.82524164  .00001108  00000-0  50438-3 0  9993
2 27844  98.6776   6.2394 0008869 310.2173  49.8229 14.23723939115196
CUBESAT XI-IV (CO-57)
1 27848U 03031J   24361.55804479  .00000911  00000-0  42305-3 0  9992
2 27848  98.6805   6.1014 0009003 329.1787  30.8862 14.23097921114896
MOZHAYETS-4 (RS-22)
1 27939U 03042A   24362.17067058  .00003472  00000-0  56781-3 0  9996
2 27939  98.3077 161.9088 0011873 165.4991 282.9751 14.71451556136647
UFO 11 (USA 174)
1 28117U 03057A   24362.11600955 -.00000080  00000-0  00000+0 0  9996
2 28117   8.3730  36.1319 0004385 233.0272 303.8432  1.00273381 77039
CUBESAT XI-V (CO-58)
1 28895U 05043F   24361.84481571  .00004957  00000-0  83815-3 0  9991
2 28895  98.2237 138.5341 0016043 108.0974 252.1980 14.69734317 22739
CAPE-1
1 31130U 07012P   24361.81120067  .00005958  00000-0  11309-2 0  9992
2 31130  98.3759 314.1724 0086460 308.1283  51.2147 14.62205517939736
CUTE-1.7+APD II (CO-65)
1 32785U 08021C   24361.89316668  .00011856  00000-0  92743-3 0  9998
2 32785  97.7696 326.4354 0012409  66.9869 293.2662 15.01149744904344
SEEDS-II (CO-66)
1 32791U 08021J   24361.37349999  .00020096  00000-0  11788-2 0  9996
2 32791  97.7114 332.7338 0006273  37.1300 323.0363 15.11773835905470
YUBILEINY (RS-30)
1 32953U 08025A   24362.06314501  .00000033  00000-0  16433-3 0  9990
2 32953  82.5040 329.5154 0020490  46.2317 314.0455 12.43155854753094
PRISM (HITOMI)
1 33493U 09002B   24362.15513539  .00095757  00000-0  21785-2 0  9990
2 33493  98.1748  69.0170 0007643 296.6791  63.3671 15.42589285868539
KKS-1 (KISEKI)
1 33499U 09002H   24361.95597302  .00004447  00000-0  58747-3 0  9998
2 33499  98.1281 265.8366 0007058 223.3491 136.7166 14.80511821856627
SWISSCUBE
1 35932U 09051B   24361.64224326  .00003664  00000-0  76538-3 0  9993
2 35932  98.4481 248.7000 0008293  82.2863 277.9278 14.60469515810631
BEESAT
1 35933U 09051C   24361.69374897  .00003177  00000-0  67175-3 0  9994
2 35933  98.4410 249.3865 0006637  93.0463 267.1496 14.60012136810700
ITUPSAT-1
1 35935U 09051E   24361.64633726  .00002855  00000-0  61974-3 0  9993
2 35935  98.4507 249.0059 0008840 100.6969 259.5226 14.58868803810315
PROBA-2
1 36037U 09059B   24361.60538685  .00001068  00000-0  26188-3 0  9992
2 36037  98.2302 181.8892 0013986 137.3069 222.9217 14.54323186803371
XIWANG-1 (HOPE-1)
1 36122U 09072B   24361.84970956 -.00000012  00000-0  83944-4 0  9992
2 36122 100.3253 315.2902 0007813  26.4216 333.7294 13.16415934722304
EWS-G2 (GOES-15)
1 36411U 10008A   24361.54161833  .00000066  00000-0  00000-0 0  9993
2 36411   0.1031 269.9647 0006155 348.8151  93.1152  1.00272227 54241
TISAT-1
1 36799U 10035E   24361.64764108  .00022440  00000-0  13810-2 0  9992
2 36799  98.0704 260.1547 0003017 338.3722  21.7378 15.10024450786021
HORYU-2
1 38340U 12025D   24361.86891202  .00008663  00000-0  10143-2 0  9994
2 38340  98.1697 105.9703 0010026 131.4977 228.7099 14.85258813668794
AAUSAT-3
1 39087U 13009B   24362.05108750  .00002221  00000-0  73759-3 0  9994
2 39087  98.3628 187.6167 0012291  28.9415 331.2452 14.38661827620223
STRAND-1
1 39090U 13009E   24361.75779221  .00001101  00000-0  38927-3 0  9995
2 39090  98.3766 184.8135 0009507  42.6106 317.5816 14.36539667619885
CUBEBUG-1 (CAPITAN BETO)
1 39153U 13018D   24361.98877499  .00010163  00000-0  10267-2 0  9990
2 39153  98.0957 131.6157 0014314 119.1300 241.1352 14.91169170630908
PROBA-V
1 39159U 13021A   24361.97221486  .00000284  00000-0  14316-3 0  9991
2 39159  98.3124 357.8034 0003000 266.1439  93.9397 14.23404219604684
ZACUBE-1 (TSHEPISOSAT)
1 39417U 13066B   24361.83234443  .00011786  00000-0  10995-2 0  9996
2 39417  97.7594 314.2933 0044739 240.8503 118.8236 14.93599479600297
TRITON-1
1 39427U 13066M   24362.11894997  .00006105  00000-0  80472-3 0  9992
2 39427  97.8414 274.2273 0097367 178.6064 181.5436 14.77153848594858
DELFI-N3XT
1 39428U 13066N   24361.70647069  .00012886  00000-0  14380-2 0  9990
2 39428  97.8376 275.6710 0090692 180.9026 179.2039 14.84146646594584
GOMX-1
1 39430U 13066Q   24362.11388775  .00005821  00000-0  92817-3 0  9998
2 39430  97.7035 224.7695 0135707 358.9085   1.1804 14.66269212591297
HUMSAT-D
1 39433U 13066T   24361.45731131  .00037395  00000-0  16582-2 0  9990
2 39433  97.4987 350.1164 0014742 352.4761   7.6252 15.21400547603857
VELOX-PII
1 39438U 13066Y   24361.78952721  .00010146  00000-0  10854-2 0  9992
2 39438  97.8108 305.7660 0057872 320.5716  39.1295 14.87685385597771
CUBEBUG-2 (LO-74)
1 39440U 13066AA  24361.80587953  .00012344  00000-0  13230-2 0  9992
2 39440  97.8333 301.9937 0065896   4.6320 355.5492 14.87187957596927
FUNCUBE-1 (AO-73)
1 39444U 13066AE  24361.87669291  .00013606  00000-0  11386-2 0  9991
2 39444  97.7425 318.1342 0041999 217.1446 142.6869 14.97885682598892
UWE-3
1 39446U 13066AG  24361.85310310  .00011232  00000-0  11338-2 0  9996
2 39446  97.8041 308.2182 0054987 306.2107  53.4033 14.90103219597350
UNISAT-6
1 40012U 14033C   24361.92075183  .00007187  00000-0  86957-3 0  9990
2 40012  97.7188 157.1528 0050427  36.4464 324.0166 14.83057681566375
DUCHIFAT-1
1 40021U 14033M   24361.87039980  .00031798  00000-0  15579-2 0  9995
2 40021  98.1000 357.2005 0010912 152.5853 207.5957 15.18039121573248
FUNCUBE-3 (EO-79)
1 40025U 14033R   24361.88874393  .00015963  00000-0  11048-2 0  9998
2 40025  98.0651 330.0749 0009516 251.0814 108.9380 15.05737298571818
SMAP
1 40376U 15003A   24362.12173942  .00001579  00000-0  31489-3 0  9995
2 40376  98.1287   5.7901 0001393  79.0059 281.1300 14.63322438529079
XW-2C
1 40906U 15049H   24361.98291607  .00184187  00000-0  12252-2 0  9999
2 40906  97.4523  27.1063 0002659 353.9434   6.1798 15.74884056514428
LILACSAT-2
1 40908U 15049K   24362.13343611  .00018635  00000-0  58329-3 0  9992
2 40908  97.5182  13.0794 0012004  36.8267 323.3797 15.33097098512982
LAPAN-A2 (IO-86)
1 40931U 15052B   24337.09180034  .00002217  00000-0  20975-3 0  9992
2 40931   5.9986 232.5457 0013173 302.5393  57.3463 14.78392648496340
LQSAT
1 40958U 15057A   24362.11342789  .00001822  00000-0  27380-3 0  9992
2 40958  97.6594  12.1170 0016522 211.5595 148.4625 14.75569236496056
PRATHAM
1 41783U 16059A   24361.89972772  .00002130  00000-0  39561-3 0  9994
2 41783  97.8286  12.2210 0033144 127.2034 233.2204 14.65816815440769
